SAUDISAT 1C (SO-50)     
1 27607U 02058C   26197.55521719  .00000354  00000+0  59872-4 0  9993
2 27607  64.5519  38.1171 0074482 257.0171 102.2611 14.83099820268815
SAUDISAT 2              
1 28371U 04025F   26197.49653273  .00000088  00000+0  30733-4 0  9991
2 28371  98.5521 198.2376 0024146 204.0882 155.9188 14.56698633170017
SAUDISAT 3              
1 31118U 07012B   26197.36348380  .00000094  00000+0  23299-4 0  9995
2 31118  98.1467 147.7857 0015658 131.2431 229.0127 14.71440619 32038
PISAT                   
1 41784U 16059B   26197.50135378  .00000433  00000+0  81373-4 0  9997
2 41784  97.8192 196.6965 0030479 110.8312 249.6163 14.69031004524047
FLYING LAPTOP           
1 42831U 17042G   26197.64636644  .00002096  00000+0  16671-3 0  9996
2 42831  97.4811 352.0719 0019651  27.8785 332.3488 15.01319059490879
SALSAT                  
1 46495U 20068K   26197.24901140  .00003822  00000+0  13369-3 0  9999
2 46495  97.8856 202.0925 0009321 188.9749 171.1325 15.30180346319806
